[{"OBJECT_NAME":"STARLINK-1591","OBJECT_ID":"2020-055U","EPOCH":"2026-03-10T00:00:02.999808","MEAN_MOTION":15.18497861,"ECCENTRICITY":3.326e-5,"INCLINATION":53.1044,"RA_OF_ASC_NODE":124.8093,"ARG_OF_PERICENTER":103.7008,"MEAN_ANOMALY":218.0512,"EPHEMERIS_TYPE":0,"CLASSIFICATION_TYPE":"U","NORAD_CAT_ID":46045,"ELEMENT_SET_NO":999,"REV_AT_EPOCH":579,"BSTAR":0.0057904655,"MEAN_MOTION_DOT":0.00122649,"MEAN_MOTION_DDOT":0},{"OBJECT_NAME":"COSMOS 397 DEB","OBJECT_ID":"1971-015AP","EPOCH":"2026-03-09T23:21:39.504096","MEAN_MOTION":15.2848821,"ECCENTRICITY":0.00875373,"INCLINATION":65.5189,"RA_OF_ASC_NODE":36.1077,"ARG_OF_PERICENTER":68.9592,"MEAN_ANOMALY":292.0879,"EPHEMERIS_TYPE":0,"CLASSIFICATION_TYPE":"U","NORAD_CAT_ID":5192,"ELEMENT_SET_NO":999,"REV_AT_EPOCH":75637,"BSTAR":0.0038413279,"MEAN_MOTION_DOT":0.00121672,"MEAN_MOTION_DDOT":0}]
